[{"OBJECT_NAME":"ONEWEB-0243","OBJECT_ID":"2021-045H","EPOCH":"2026-02-22T01:35:21.363936","MEAN_MOTION":13.15547794,"ECCENTRICITY":0.0001255,"INCLINATION":87.8955,"RA_OF_ASC_NODE":282.2092,"ARG_OF_PERICENTER":95.7266,"MEAN_ANOMALY":264.4007,"EPHEMERIS_TYPE":0,"CLASSIFICATION_TYPE":"U","NORAD_CAT_ID":48774,"ELEMENT_SET_NO":999,"REV_AT_EPOCH":22922,"BSTAR":-0.00037316,"MEAN_MOTION_DOT":-1.28e-6,"MEAN_MOTION_DDOT":0},{"OBJECT_NAME":"ONEWEB-0222","OBJECT_ID":"2021-045J","EPOCH":"2026-02-22T01:11:25.262880","MEAN_MOTION":13.15547488,"ECCENTRICITY":0.0001522,"INCLINATION":87.8964,"RA_OF_ASC_NODE":282.1713,"ARG_OF_PERICENTER":92.2735,"MEAN_ANOMALY":267.8569,"EPHEMERIS_TYPE":0,"CLASSIFICATION_TYPE":"U","NORAD_CAT_ID":48775,"ELEMENT_SET_NO":999,"REV_AT_EPOCH":22926,"BSTAR":-0.00032187,"MEAN_MOTION_DOT":-1.08e-6,"MEAN_MOTION_DDOT":0},{"OBJECT_NAME":"ONEWEB-0244","OBJECT_ID":"2021-045K","EPOCH":"2026-02-22T01:49:03.278496","MEAN_MOTION":13.15550153,"ECCENTRICITY":0.0001412,"INCLINATION":87.8967,"RA_OF_ASC_NODE":282.1559,"ARG_OF_PERICENTER":91.8789,"MEAN_ANOMALY":268.2503,"EPHEMERIS_TYPE":0,"CLASSIFICATION_TYPE":"U","NORAD_CAT_ID":48776,"ELEMENT_SET_NO":999,"REV_AT_EPOCH":22983,"BSTAR":0.000422,"MEAN_MOTION_DOT":1.72e-6,"MEAN_MOTION_DDOT":0},{"OBJECT_NAME":"ONEWEB-0247","OBJECT_ID":"2021-045L","EPOCH":"2026-02-22T01:44:29.867424","MEAN_MOTION":13.15546261,"ECCENTRICITY":0.0001096,"INCLINATION":87.8957,"RA_OF_ASC_NODE":282.2023,"ARG_OF_PERICENTER":119.1087,"MEAN_ANOMALY":241.0153,"EPHEMERIS_TYPE":0,"CLASSIFICATION_TYPE":"U","NORAD_CAT_ID":48777,"ELEMENT_SET_NO":999,"REV_AT_EPOCH":22927,"BSTAR":0.00033053,"MEAN_MOTION_DOT":1.37e-6,"MEAN_MOTION_DDOT":0},{"OBJECT_NAME":"ONEWEB-0245","OBJECT_ID":"2021-045M","EPOCH":"2026-02-22T01:37:38.439264","MEAN_MOTION":13.15550672,"ECCENTRICITY":0.0001675,"INCLINATION":87.8964,"RA_OF_ASC_NODE":282.1724,"ARG_OF_PERICENTER":92.879,"MEAN_ANOMALY":267.2532,"EPHEMERIS_TYPE":0,"CLASSIFICATION_TYPE":"U","NORAD_CAT_ID":48778,"ELEMENT_SET_NO":999,"REV_AT_EPOCH":22924,"BSTAR":0.00034106,"MEAN_MOTION_DOT":1.41e-6,"MEAN_MOTION_DDOT":0},{"OBJECT_NAME":"ONEWEB-0229","OBJECT_ID":"2021-045N","EPOCH":"2026-02-21T23:41:16.291968","MEAN_MOTION":13.15550347,"ECCENTRICITY":0.0001375,"INCLINATION":87.8965,"RA_OF_ASC_NODE":282.1867,"ARG_OF_PERICENTER":87.8897,"MEAN_ANOMALY":272.239,"EPHEMERIS_TYPE":0,"CLASSIFICATION_TYPE":"U","NORAD_CAT_ID":48779,"ELEMENT_SET_NO":999,"REV_AT_EPOCH":22926,"BSTAR":6.0455e-5,"MEAN_MOTION_DOT":3.6e-7,"MEAN_MOTION_DDOT":0},{"OBJECT_NAME":"ONEWEB-0228","OBJECT_ID":"2021-045P","EPOCH":"2026-02-22T02:18:54.968256","MEAN_MOTION":13.15549765,"ECCENTRICITY":0.0001476,"INCLINATION":87.8969,"RA_OF_ASC_NODE":282.1519,"ARG_OF_PERICENTER":89.1443,"MEAN_ANOMALY":270.9856,"EPHEMERIS_TYPE":0,"CLASSIFICATION_TYPE":"U","NORAD_CAT_ID":48780,"ELEMENT_SET_NO":999,"REV_AT_EPOCH":22919,"BSTAR":0.00012397,"MEAN_MOTION_DOT":5.9e-7,"MEAN_MOTION_DDOT":0},{"OBJECT_NAME":"ONEWEB-0232","OBJECT_ID":"2021-045Q","EPOCH":"2026-02-22T01:42:12.451680","MEAN_MOTION":13.15549713,"ECCENTRICITY":0.000153,"INCLINATION":87.8978,"RA_OF_ASC_NODE":282.1547,"ARG_OF_PERICENTER":88.3415,"MEAN_ANOMALY":271.7891,"EPHEMERIS_TYPE":0,"CLASSIFICATION_TYPE":"U","NORAD_CAT_ID":48781,"ELEMENT_SET_NO":999,"REV_AT_EPOCH":22951,"BSTAR":0.00032115,"MEAN_MOTION_DOT":1.34e-6,"MEAN_MOTION_DDOT":0},{"OBJECT_NAME":"ONEWEB-0231","OBJECT_ID":"2021-045R","EPOCH":"2026-02-22T01:10:16.301856","MEAN_MOTION":13.15550335,"ECCENTRICITY":0.000149,"INCLINATION":87.8954,"RA_OF_ASC_NODE":282.1891,"ARG_OF_PERICENTER":95.092,"MEAN_ANOMALY":265.038,"EPHEMERIS_TYPE":0,"CLASSIFICATION_TYPE":"U","NORAD_CAT_ID":48782,"ELEMENT_SET_NO":999,"REV_AT_EPOCH":22920,"BSTAR":-0.00038375,"MEAN_MOTION_DOT":-1.32e-6,"MEAN_MOTION_DDOT":0},{"OBJECT_NAME":"ONEWEB-0234","OBJECT_ID":"2021-045S","EPOCH":"2026-02-22T02:04:51.235968","MEAN_MOTION":13.15548903,"ECCENTRICITY":0.0002377,"INCLINATION":87.8961,"RA_OF_ASC_NODE":282.1594,"ARG_OF_PERICENTER":84.8874,"MEAN_ANOMALY":275.2528,"EPHEMERIS_TYPE":0,"CLASSIFICATION_TYPE":"U","NORAD_CAT_ID":48783,"ELEMENT_SET_NO":999,"REV_AT_EPOCH":22934,"BSTAR":0.00039741,"MEAN_MOTION_DOT":1.62e-6,"MEAN_MOTION_DDOT":0},{"OBJECT_NAME":"ONEWEB-0238","OBJECT_ID":"2021-045T","EPOCH":"2026-02-22T02:05:13.671456","MEAN_MOTION":13.15549116,"ECCENTRICITY":0.0001966,"INCLINATION":87.8961,"RA_OF_ASC_NODE":282.1528,"ARG_OF_PERICENTER":84.7348,"MEAN_ANOMALY":275.4006,"EPHEMERIS_TYPE":0,"CLASSIFICATION_TYPE":"U","NORAD_CAT_ID":48784,"ELEMENT_SET_NO":999,"REV_AT_EPOCH":22924,"BSTAR":0.00042142,"MEAN_MOTION_DOT":1.71e-6,"MEAN_MOTION_DDOT":0},{"OBJECT_NAME":"ONEWEB-0240","OBJECT_ID":"2021-045U","EPOCH":"2026-02-22T02:35:50.749728","MEAN_MOTION":13.15547516,"ECCENTRICITY":0.0001661,"INCLINATION":87.8969,"RA_OF_ASC_NODE":282.1485,"ARG_OF_PERICENTER":97.3248,"MEAN_ANOMALY":262.8071,"EPHEMERIS_TYPE":0,"CLASSIFICATION_TYPE":"U","NORAD_CAT_ID":48785,"ELEMENT_SET_NO":999,"REV_AT_EPOCH":22927,"BSTAR":-8.8891e-5,"MEAN_MOTION_DOT":-2.1e-7,"MEAN_MOTION_DDOT":0},{"OBJECT_NAME":"ONEWEB-0246","OBJECT_ID":"2021-045V","EPOCH":"2026-02-22T02:27:50.689728","MEAN_MOTION":13.15550297,"ECCENTRICITY":0.0001396,"INCLINATION":87.8967,"RA_OF_ASC_NODE":282.1589,"ARG_OF_PERICENTER":88.9605,"MEAN_ANOMALY":271.1685,"EPHEMERIS_TYPE":0,"CLASSIFICATION_TYPE":"U","NORAD_CAT_ID":48786,"ELEMENT_SET_NO":999,"REV_AT_EPOCH":22914,"BSTAR":-2.8817e-5,"MEAN_MOTION_DOT":2.0e-8,"MEAN_MOTION_DDOT":0},{"OBJECT_NAME":"ONEWEB-0210","OBJECT_ID":"2021-045W","EPOCH":"2026-02-22T01:51:19.927872","MEAN_MOTION":13.1554893,"ECCENTRICITY":7.28e-5,"INCLINATION":87.8966,"RA_OF_ASC_NODE":282.1619,"ARG_OF_PERICENTER":113.3823,"MEAN_ANOMALY":246.7384,"EPHEMERIS_TYPE":0,"CLASSIFICATION_TYPE":"U","NORAD_CAT_ID":48787,"ELEMENT_SET_NO":999,"REV_AT_EPOCH":22918,"BSTAR":0.00039887,"MEAN_MOTION_DOT":1.63e-6,"MEAN_MOTION_DDOT":0},{"OBJECT_NAME":"ONEWEB-0214","OBJECT_ID":"2021-045X","EPOCH":"2026-02-22T02:03:53.633952","MEAN_MOTION":13.15546541,"ECCENTRICITY":0.0001117,"INCLINATION":87.8967,"RA_OF_ASC_NODE":282.1554,"ARG_OF_PERICENTER":84.7307,"MEAN_ANOMALY":275.3951,"EPHEMERIS_TYPE":0,"CLASSIFICATION_TYPE":"U","NORAD_CAT_ID":48788,"ELEMENT_SET_NO":999,"REV_AT_EPOCH":22915,"BSTAR":0.00024191,"MEAN_MOTION_DOT":1.04e-6,"MEAN_MOTION_DDOT":0},{"OBJECT_NAME":"ONEWEB-0221","OBJECT_ID":"2021-045Y","EPOCH":"2026-02-22T02:14:09.340224","MEAN_MOTION":13.15549767,"ECCENTRICITY":0.0001496,"INCLINATION":87.8964,"RA_OF_ASC_NODE":282.1644,"ARG_OF_PERICENTER":96.2232,"MEAN_ANOMALY":263.9069,"EPHEMERIS_TYPE":0,"CLASSIFICATION_TYPE":"U","NORAD_CAT_ID":48789,"ELEMENT_SET_NO":999,"REV_AT_EPOCH":22924,"BSTAR":0.00030747,"MEAN_MOTION_DOT":1.29e-6,"MEAN_MOTION_DDOT":0},{"OBJECT_NAME":"ONEWEB-0213","OBJECT_ID":"2021-045Z","EPOCH":"2026-02-22T01:58:11.317152","MEAN_MOTION":13.15546691,"ECCENTRICITY":0.0001365,"INCLINATION":87.8964,"RA_OF_ASC_NODE":282.1701,"ARG_OF_PERICENTER":100.6237,"MEAN_ANOMALY":259.5047,"EPHEMERIS_TYPE":0,"CLASSIFICATION_TYPE":"U","NORAD_CAT_ID":48790,"ELEMENT_SET_NO":999,"REV_AT_EPOCH":22930,"BSTAR":0.00040305,"MEAN_MOTION_DOT":1.65e-6,"MEAN_MOTION_DDOT":0}]
