ONEWEB-0243             
1 48774U 21045H   26053.06621949 -.00000128  00000+0 -37316-3 0  9990
2 48774  87.8955 282.2092 0001255  95.7266 264.4007 13.15547794229223
ONEWEB-0222             
1 48775U 21045J   26053.04959795 -.00000108  00000+0 -32187-3 0  9991
2 48775  87.8964 282.1713 0001522  92.2735 267.8569 13.15547488229267
ONEWEB-0244             
1 48776U 21045K   26053.07573239  .00000172  00000+0  42200-3 0  9996
2 48776  87.8967 282.1559 0001412  91.8789 268.2503 13.15550153229830
ONEWEB-0247             
1 48777U 21045L   26053.07256791  .00000137  00000+0  33053-3 0  9995
2 48777  87.8957 282.2023 0001096 119.1087 241.0153 13.15546261229273
ONEWEB-0245             
1 48778U 21045M   26053.06780601  .00000141  00000+0  34106-3 0  9992
2 48778  87.8964 282.1724 0001675  92.8790 267.2532 13.15550672229249
ONEWEB-0229             
1 48779U 21045N   26052.98699412  .00000036  00000+0  60455-4 0  9992
2 48779  87.8965 282.1867 0001375  87.8897 272.2390 13.15550347229267
ONEWEB-0228             
1 48780U 21045P   26053.09646954  .00000059  00000+0  12397-3 0  9996
2 48780  87.8969 282.1519 0001476  89.1443 270.9856 13.15549765229197
ONEWEB-0232             
1 48781U 21045Q   26053.07097745  .00000134  00000+0  32115-3 0  9997
2 48781  87.8978 282.1547 0001530  88.3415 271.7891 13.15549713229517
ONEWEB-0231             
1 48782U 21045R   26053.04879979 -.00000132  00000+0 -38375-3 0  9996
2 48782  87.8954 282.1891 0001490  95.0920 265.0380 13.15550335229202
ONEWEB-0234             
1 48783U 21045S   26053.08670412  .00000162  00000+0  39741-3 0  9991
2 48783  87.8961 282.1594 0002377  84.8874 275.2528 13.15548903229340
ONEWEB-0238             
1 48784U 21045T   26053.08696379  .00000171  00000+0  42142-3 0  9991
2 48784  87.8961 282.1528 0001966  84.7348 275.4006 13.15549116229245
ONEWEB-0240             
1 48785U 21045U   26053.10822627 -.00000021  00000+0 -88891-4 0  9990
2 48785  87.8969 282.1485 0001661  97.3248 262.8071 13.15547516229274
ONEWEB-0246             
1 48786U 21045V   26053.10267002  .00000002  00000+0 -28817-4 0  9991
2 48786  87.8967 282.1589 0001396  88.9605 271.1685 13.15550297229146
ONEWEB-0210             
1 48787U 21045W   26053.07731398  .00000163  00000+0  39887-3 0  9997
2 48787  87.8966 282.1619 0000728 113.3823 246.7384 13.15548930229182
ONEWEB-0214             
1 48788U 21045X   26053.08603743  .00000104  00000+0  24191-3 0  9998
2 48788  87.8967 282.1554 0001117  84.7307 275.3951 13.15546541229154
ONEWEB-0221             
1 48789U 21045Y   26053.09316366  .00000129  00000+0  30747-3 0  9993
2 48789  87.8964 282.1644 0001496  96.2232 263.9069 13.15549767229243
ONEWEB-0213             
1 48790U 21045Z   26053.08207543  .00000165  00000+0  40305-3 0  9991
2 48790  87.8964 282.1701 0001365 100.6237 259.5047 13.15546691229306
